# From MPC114605
P/2019 A6 (Lemmon-PANSTARRS),e,33.2768,280.1833,156.2029,5.357384,0.0794831,0.64006705,142.9467,08/03.0/2023,2000,g 16.0,4.0
# From MPC115884
P/2019 A8 (PANSTARRS),e,2.1820,113.7845,65.7123,4.310550,0.1101298,0.23273359,206.0963,08/03.0/2023,2000,g 16.0,4.0
# From MPC118842
C/2019 A9 (PANSTARRS),e,84.2848,278.4200,237.9153,39.13569,0.0040257,0.96344741,5.9139,08/03.0/2023,2000,g 15.0,4.0
# From MPEC 2022-L66
C/2019 B1 (Africano),e,123.4276,290.3495,174.7662,137.2834,0.0006127,0.98835467,0.0000,03/18.4424/2019,2000,g 16.0,4.0
# From MPC115885
P/2019 B2 (Groeller),e,16.9966,175.7438,0.9411,3.917527,0.1271119,0.35937429,194.4980,08/03.0/2023,2000,g 14.5,4.0
# From MPEC 2023-HD1
C/2019 B3 (PANSTARRS),e,66.5411,358.4310,263.9706,16655,0.0000005,0.99959017,0.0000,01/20.2764/2021,2000,g  9.4,4.0
# From MPEC 2021-P47
C/2019 C1 (ATLAS),e,36.0519,212.3928,319.0577,643.3269,0.0000604,0.98978000,0.0000,05/04.1787/2020,2000,g 10.0,4.0
# From MPEC 2022-O08
C/2019 D1 (Flewelling),e,34.0025,231.6542,70.7024,141.8479,0.0005834,0.98881134,0.0000,05/10.9329/2019,2000,g 13.0,4.0
# From MPEC 2023-OA6
C/2019 E3 (ATLAS),e,84.2975,347.2412,280.6917,13603,0.0000006,0.99924187,0.0000,11/15.1047/2023,2000,g  2.5,4.0
# From MPEC 2023-CD7
C/2019 F1 (ATLAS-Africano),h,06/22.8054/2021,54.2349,38.6640,251.3253,1.002562,3.604387,2000,5.5,4.0
# From MPEC 2021-P47
C/2019 F2 (ATLAS),e,19.2836,175.4314,11.6413,16.61257,0.0145562,0.86477898,20.7474,08/03.0/2023,2000,g 12.0,4.0
# From MPEC 2021-P47
A/2019 G2,e,159.2150,208.1619,82.6073,426.9156,0.0001117,0.99462533,0.0000,12/08.2895/2019,2000,g 16.5,2.0
# From MPEC 2022-VC5
A/2019 G3,e,156.8055,49.9041,161.8979,17.19733,0.0138201,0.83449782,23.5282,08/03.0/2023,2000,g 17.1,2.0
# From MPEC 2022-P82
C/2019 G4 (PANSTARRS),h,09/15.5746/2018,138.3444,130.4468,287.7416,1.001512,5.846971,2000,9.5,4.0
# From MPC114607
P/2019 GG21 (PANSTARRS),e,6.0866,340.5547,208.5997,7.468800,0.0482867,0.47180841,74.6534,08/03.0/2023,2000,g 12.0,4.0
# From MPEC 2022-M21
C/2019 H1 (NEOWISE),e,104.4371,269.2788,19.3305,245.5510,0.0002561,0.99248884,0.0000,04/27.9377/2019,2000,g 15.5,4.0
# From MPEC 2023-A50
C/2019 J1 (Lemmon),e,24.5379,98.1711,167.7277,68.15306,0.0017518,0.96353147,2.7651,08/03.0/2023,2000,g 12.0,4.0
# From MPEC 2021-R75
C/2019 J2 (Palomar),e,105.2351,25.5633,98.6766,162.0940,0.0004776,0.98938553,0.0000,07/20.5255/2019,2000,g 13.0,4.0
# From MPC117071
C/2019 J3 (ATLAS),h,08/02.4602/2019,131.3422,270.6140,16.6004,1.000595,2.369971,2000,13.5,4.0
# From MPEC 2022-M21
C/2019 JU6 (ATLAS),h,06/02.0601/2019,148.3321,21.7671,94.9850,1.000074,2.043141,2000,14.5,4.0
# From MPEC 2022-O08
C/2019 K1 (ATLAS),e,87.0444,73.3313,265.7275,8739,0.0000012,0.99976950,0.0000,02/12.5847/2020,2000,g 10.0,4.0
# From MPC119997
C/2019 K4 (Ye),e,105.2971,180.1567,139.9011,1405,0.0000187,0.99838434,0.0000,06/15.5215/2019,2000,g 12.5,4.0
# From MPEC 2021-P47
C/2019 K5 (Young),e,15.3171,177.1375,175.1549,168.8504,0.0004492,0.98789648,0.0000,06/22.9240/2019,2000,g 13.0,4.0
# From MPEC 2021-P47
C/2019 K6 (PANSTARRS),e,132.3803,42.9992,187.5721,1456,0.0000177,0.99730593,0.0000,05/19.9068/2020,2000,g 11.5,4.0
# From MPEC 2023-M14
C/2019 K7 (Smith),h,06/17.6452/2020,103.5273,307.9735,27.4078,1.000977,4.478432,2000,6.0,4.0
# From MPEC 2021-R75
C/2019 K8 (ATLAS),e,93.1276,291.0236,85.3773,2571,0.0000076,0.99875811,0.0000,07/21.7189/2019,2000,g 11.5,4.0
# From MPEC 2023-A50
C/2019 L1 (PANSTARRS),e,9.9783,254.4299,50.0571,9.839142,0.0319351,0.70522178,46.4218,08/03.0/2023,2000,g 13.5,4.0
# From MPC115886
C/2019 L2 (NEOWISE),e,152.2097,12.5490,18.8508,25.05375,0.0078595,0.93508900,12.4488,08/03.0/2023,2000,g 16.0,4.0
# From MPEC 2023-HD1
P/2019 LD2 (ATLAS),e,11.6167,179.5615,119.4958,5.214062,0.0827827,0.12660757,103.4533,08/03.0/2023,2000,g 12.0,4.0
# From MPEC 2023-OA6
C/2019 L3 (ATLAS),h,01/09.6942/2022,48.3477,290.7706,171.6283,1.002201,3.554488,2000,4.5,4.0
# From MPC118095
C/2019 LB7 (Kleyna),e,164.2912,3.8921,336.5959,34.72044,0.0048176,0.92820873,7.6634,08/03.0/2023,2000,g 17.0,4.0
# From MPEC 2022-O08
P/2019 M2 (ATLAS),e,12.2694,307.6158,332.5447,3.029065,0.1869568,0.64736007,281.0747,08/03.0/2023,2000,g 21.2,4.0
# From MPC118095
C/2019 M3 (ATLAS),e,99.5260,154.9393,87.9005,5886,0.0000022,0.99958835,0.0000,12/31.7632/2018,2000,g 12.2,4.0
# From MPEC 2023-JA2
C/2019 M4 (TESS),h,09/12.3189/2019,65.6813,52.6467,260.3743,1.003590,9.188469,2000,5.0,4.0
# From MPEC 2023-C45
C/2019 N1 (ATLAS),e,82.4326,13.5712,193.4084,1472,0.0000174,0.99884185,0.0000,12/01.2001/2020,2000,g  7.5,4.0
# From MPEC 2023-CD8
A/2019 N2,e,89.3773,276.1384,347.1896,1595,0.0000155,0.99877866,0.0000,08/22.7320/2019,2000,g 12.5,2.0
# From MPEC 2022-A21
C/2019 NJ3 (Lemmon),h,10/22.9794/2020,99.4113,142.4732,246.9137,1.002560,4.362782,2000,9.0,4.0
# From MPEC 2023-OA6
A/2019 O2,e,93.3101,48.2598,129.6315,58.02113,0.0022301,0.83311663,0.2630,08/03.0/2023,2000,g  9.5,2.0
# From MPEC 2023-OA6
C/2019 O3 (Palomar),h,03/09.6525/2021,89.8173,300.4277,60.1322,1.004427,8.821215,2000,3.5,4.0
# From MPEC 2021-P47
A/2019 O4,e,115.0848,354.9105,61.9058,33.32014,0.0051244,0.89058119,6.5030,08/03.0/2023,2000,g 15.5,2.0
# From MPEC 2023-A50
C/2019 Q1 (Lemmon),h,07/20.8736/2020,155.7306,42.4579,56.2081,1.000978,5.003670,2000,8.5,4.0
# From MPC117072
A/2019 Q2,e,159.0272,188.0152,176.4089,58.01025,0.0022307,0.97822189,0.0000,07/22.1745/2019,2000,g 18.0,2.0
# From MPC117072
C/2019 Q3 (PANSTARRS),h,08/21.2526/2018,65.5432,151.3464,152.8011,1.002410,7.267646,2000,8.5,4.0
# From MPC117072
P/2019 S2 (PANSTARRS),e,10.4650,93.1376,217.1613,4.743402,0.0954046,0.20553219,154.8870,08/03.0/2023,2000,g 13.5,4.0
# From MPEC 2022-CN4
P/2019 S3 (PANSTARRS),e,8.6923,150.1472,213.0680,3.415322,0.1561552,0.47116085,224.3366,08/03.0/2023,2000,g 18.3,4.0
# From MPEC 2021-S45
C/2019 S4 (Lemmon),e,92.0896,63.1485,71.3787,235.8179,0.0002722,0.98540269,0.0000,04/08.1466/2020,2000,g 11.0,4.0
# From MPEC 2023-N01
A/2019 T1,e,120.8741,6.9450,91.0696,38.78883,0.0040798,0.88963105,3.7947,08/03.0/2023,2000,g 13.0,2.0
# From MPEC 2023-N01
C/2019 T2 (Lemmon),e,111.4672,155.6517,239.4319,4558,0.0000032,0.99941951,0.0000,04/22.5739/2021,2000,g  9.0,4.0
# From MPEC 2023-OA6
C/2019 T3 (ATLAS),e,121.8394,139.5324,112.4540,3544,0.0000047,0.99832049,0.0000,03/04.3115/2021,2000,g  6.8,4.0
# From MPEC 2023-OA6
C/2019 T4 (ATLAS),e,53.6320,199.9392,351.1608,936.6510,0.0000344,0.99547146,0.0000,06/08.8885/2022,2000,g  5.0,4.0
# From MPEC 2021-P47
P/2019 T5 (ATLAS),e,33.4970,247.6204,189.5696,7.998139,0.0435733,0.80960932,63.7041,08/03.0/2023,2000,g 15.0,4.0
# From MPEC 2021-P47
P/2019 T6 (PANSTARRS),e,18.7039,71.2141,329.0155,5.438299,0.0777158,0.62308014,105.9494,08/03.0/2023,2000,g 15.5,4.0
# From MPC118096
P/2019 U4 (PANSTARRS),e,11.7008,200.0009,181.0384,3.520069,0.1492372,0.47603040,210.9059,08/03.0/2023,2000,g 19.0,4.0
# From MPEC 2023-OA6
C/2019 U5 (PANSTARRS),h,03/29.8082/2023,113.5189,2.6371,181.4886,1.001365,3.624153,2000,4.5,4.0
# From MPEC 2022-H04
C/2019 U6 (Lemmon),e,60.9733,235.7725,329.5559,333.8501,0.0001616,0.99726545,0.0000,06/18.3699/2020,2000,g 10.0,4.0
# From MPEC 2022-N37
C/2019 V1 (Borisov),e,61.9156,83.1641,51.1605,1549,0.0000162,0.99800164,0.0000,07/16.4724/2020,2000,g 11.0,4.0
# From MPEC 2022-L66
P/2019 V2 (Groeller),e,11.8082,189.1842,335.7232,7.498382,0.0480013,0.33113547,48.9529,08/03.0/2023,2000,g 10.0,4.0
# From MPEC 2023-A50
P/2019 W1 (PANSTARRS),e,23.4758,35.3768,18.7387,4.549029,0.1015842,0.26717948,157.1084,08/03.0/2023,2000,g 12.9,4.0
# From MPEC 2021-P47
P/2019 X1 (Pruyne),e,10.2506,43.6638,36.8148,6.174445,0.0642402,0.30374741,94.6050,08/03.0/2023,2000,g 10.4,4.0
# From MPC119999
C/2019 Y1 (ATLAS),e,73.3616,31.5587,57.9065,86.69709,0.0012209,0.99044273,0.0000,03/16.1404/2020,2000,g 13.7,4.0
# From MPEC 2022-YN2
C/2019 Y4 (ATLAS),e,45.1956,120.6712,177.4525,353.3117,0.0001484,0.99927711,0.0000,05/30.8270/2020,2000,g 11.8,6.0
# From MPEC 2020-L06
C/2019 Y4-A (ATLAS),h,05/30.8553/2020,45.6378,121.0331,177.2862,1.001419,0.253558,2000,11.6,6.0
# From MPEC 2023-J29
C/2019 Y4-B (ATLAS),h,05/30.8325/2020,45.3263,120.7774,177.3965,1.000020,0.254872,2000,12.1,6.0
# From MPEC 2020-L06
C/2019 Y4-C (ATLAS),h,05/30.8092/2020,45.4203,120.7597,177.3195,1.002144,0.254628,2000,12.7,6.0
# From MPEC 2020-L06
C/2019 Y4-D (ATLAS),e,45.4656,121.1330,177.4576,68.41094,0.0017419,0.99628782,0.0000,05/30.9337/2020,2000,g 12.5,6.0
# From MPEC 2023-A50
C/2019 Y5 (PANSTARRS),e,82.7657,51.7543,303.5696,746.0864,0.0000484,0.99340430,0.0000,08/17.8469/2019,2000,g 11.0,4.0
# From MPEC 2023-A50
A/2020 A1,e,149.0365,119.1933,302.4939,25.62549,0.0075979,0.93496763,10.1799,08/03.0/2023,2000,g 18.0,2.0
# From MPEC 2022-YN2
C/2020 A2 (NEOWISE),e,120.6185,286.2900,68.0804,1369,0.0000195,0.99928841,0.0000,01/08.4894/2020,2000,g 13.5,4.0
# From MPEC 2023-A50
C/2020 A3 (ATLAS),h,06/29.0304/2019,146.6647,120.8048,268.3603,1.000764,5.759379,2000,8.0,4.0
# From MPEC 2022-P91
P/2020 A4 (PANSTARRS-Lemmon),e,24.9913,312.3674,144.7745,8.194148,0.0420193,0.65406900,56.6810,08/03.0/2023,2000,g 15.0,4.0
# From MPEC 2020-N08
A/2020 B1,e,18.5213,309.9358,154.7338,51.44075,0.0026714,0.96616892,3.5144,08/03.0/2023,2000,g 21.0,2.0
# From MPEC 2022-N37
C/2020 B3 (Rankin),e,20.7094,185.8446,324.9007,938.4899,0.0000343,0.99644595,0.0000,10/19.4828/2019,2000,g 13.0,4.0
# From MPEC 2023-KD6
P/2020 B4 (Sheppard),e,11.6090,185.9788,342.0488,7.966576,0.0438325,0.19184879,27.2654,08/03.0/2023,2000,g 10.5,4.0
# From MPEC 2023-OA6
C/2020 F2 (ATLAS),h,07/14.7121/2022,163.5887,250.2931,48.3219,1.005321,8.816398,2000,4.5,4.0
# From MPEC 2021-O56
C/2020 F3 (NEOWISE),e,129.1341,61.0851,37.3721,362.5933,0.0001427,0.99918428,0.0000,07/03.7824/2020,2000,g  7.5,5.2
# From MPEC 2023-OA6
C/2020 F5 (MASTER),e,52.2050,350.4992,310.6813,175.4933,0.0004239,0.97535512,0.0000,03/17.4404/2021,2000,g  6.5,3.2
# From MPEC 2020-L06
C/2020 F6 (PANSTARRS),e,174.5830,207.9070,344.5341,396.6426,0.0001248,0.99116446,0.0000,04/11.6717/2020,2000,g 14.5,2.8
